ONEWEB-0685             
1 54679U 22166AP  25280.49360300 -.00000026  00000+0 -93323-4 0  9993
2 54679  87.9168 294.4148 0001768  83.5271 276.6065 13.21829204138031
ONEWEB-0712             
1 54680U 22166AQ  25280.44612142  .00000157  00000+0  37582-3 0  9991
2 54680  87.8979 279.1252 0001311  94.1307 265.9974 13.16594042138808
ONEWEB-0714             
1 54681U 22166AR  25280.49993890  .00000325  00000+0  75515-3 0  9994
2 54681  87.9164 294.4073 0001853  87.6643 272.4703 13.21835850138150
ONEWEB-0532             
1 55140U 23004A   25280.39371744  .00000132  00000+0  30774-3 0  9998
2 55140  87.9096  56.1287 0002006  87.6666 272.4695 13.17649489134298
ONEWEB-0533             
1 55141U 23004B   25280.73122968 -.00000028  00000+0 -11207-3 0  9995
2 55141  87.8948  40.8129 0001524  93.1177 267.0126 13.12440463134949
ONEWEB-0541             
1 55142U 23004C   25280.41110635  .00000531  00000+0  14619-2 0  9995
2 55142  87.8810  71.3921 0001772  94.3793 265.7537 13.11415333132811
ONEWEB-0543             
1 55143U 23004D   25280.72270102  .00000048  00000+0  90046-4 0  9999
2 55143  87.9208  25.6409 0001585 106.1784 253.9522 13.18687331136421
ONEWEB-0544             
1 55144U 23004E   25280.71610537  .00000058  00000+0  11527-3 0  9996
2 55144  87.9205  25.6320 0001777 108.0206 252.1119 13.18686060136425
